{"type":"FeatureCollection","features":[{"type":"Feature","geometry":{"type":"Point","coordinates":[-77.04087664895593,38.991764978041758]},"properties":{"NAME":"North Portal Estates"}},{"type":"Feature","geometry":{"type":"Point","coordinates":[-77.041093812409287,38.986789561558894]},"properties":{"NAME":"Colonial Village"}},{"type":"Feature","geometry":{"type":"Point","coordinates":[-77.055934457367343,38.980882564334898]},"properties":{"NAME":"Hawthorne"}},{"type":"Feature","geometry":{"type":"Point","coordinates":[-77.021558298618743,38.976461600175121]},"properties":{"NAME":"Takoma"}},{"type":"Feature","geometry":{"type":"Point","coordinates":[-77.060174485515873,38.975433436546545]},"properties":{"NAME":"Barnaby Woods"}},{"type":"Feature","geometry":{"type":"Point","coordinates":[-77.026874315786074,38.966379343658595]},"properties":{"NAME":"Brightwood"}},{"type":"Feature","geometry":{"type":"Point","coordinates":[-77.066477618638629,38.963146471575499]},"properties":{"NAME":"Chevy Chase"}},{"type":"Feature","geometry":{"type":"Point","coordinates":[-77.012657121956849,38.962061642088919]},"properties":{"NAME":"Manor Park"}},{"type":"Feature","geometry":{"type":"Point","coordinates":[-77.083854407975721,38.956906781096521]},"properties":{"NAME":"Friendship Heights"}},{"type":"Feature","geometry":{"type":"Point","coordinates":[-76.996590568113731,38.956070019065699]},"properties":{"NAME":"Queens Chapel"}},{"type":"Feature","geometry":{"type":"Point","coordinates":[-77.033558558873196,38.950314551817748]},"properties":{"NAME":"16th Street Heights"}},{"type":"Feature","geometry":{"type":"Point","coordinates":[-77.008128089681549,38.949429942334454]},"properties":{"NAME":"Fort Totten"}},{"type":"Feature","geometry":{"type":"Point","coordinates":[-77.071773558567088,38.947878666240904]},"properties":{"NAME":"North Cleveland Park"}},{"type":"Feature","geometry":{"type":"Point","coordinates":[-77.090249566691796,38.947611639632072]},"properties":{"NAME":"American University Park"}},{"type":"Feature","geometry":{"type":"Point","coordinates":[-77.08016309269594,38.947127400397726]},"properties":{"NAME":"Tenleytown"}},{"type":"Feature","geometry":{"type":"Point","coordinates":[-77.058461635428301,38.94689272015367]},"properties":{"NAME":"Forest Hills"}},{"type":"Feature","geometry":{"type":"Point","coordinates":[-76.993666290262425,38.945644161543157]},"properties":{"NAME":"North Michigan Park"}},{"type":"Feature","geometry":{"type":"Point","coordinates":[-77.066106379846019,38.943390584994766]},"properties":{"NAME":"Van Ness"}},{"type":"Feature","geometry":{"type":"Point","coordinates":[-77.041096892527548,38.943327113371836]},"properties":{"NAME":"Crestwood"}},{"type":"Feature","geometry":{"type":"Point","coordinates":[-77.0048035468986,38.941079185322309]},"properties":{"NAME":"Pleasant Hill"}},{"type":"Feature","geometry":{"type":"Point","coordinates":[-77.096724237653859,38.939311382665359]},"properties":{"NAME":"Spring Valley"}},{"type":"Feature","geometry":{"type":"Point","coordinates":[-76.995761498129227,38.938248765282836]},"properties":{"NAME":"University Heights"}},{"type":"Feature","geometry":{"type":"Point","coordinates":[-77.075295726045084,38.936151247314534]},"properties":{"NAME":"McLean Gardens"}},{"type":"Feature","geometry":{"type":"Point","coordinates":[-77.021444270788336,38.934604260397521]},"properties":{"NAME":"Park View"}},{"type":"Feature","geometry":{"type":"Point","coordinates":[-77.079860422687346,38.934272418159459]},"properties":{"NAME":"Cathedral Heights"}},{"type":"Feature","geometry":{"type":"Point","coordinates":[-76.968639536288777,38.934021030805511]},"properties":{"NAME":"Woodridge"}},{"type":"Feature","geometry":{"type":"Point","coordinates":[-77.040655880927076,38.931741496481827]},"properties":{"NAME":"Mount Pleasant"}},{"type":"Feature","geometry":{"type":"Point","coordinates":[-77.088324909218827,38.929980813123677]},"properties":{"NAME":"Wesley Heights"}},{"type":"Feature","geometry":{"type":"Point","coordinates":[-77.103520383699575,38.929807669011517]},"properties":{"NAME":"Palisades"}},{"type":"Feature","geometry":{"type":"Point","coordinates":[-77.02310099417906,38.929472965868996]},"properties":{"NAME":"Pleasant Plains"}},{"type":"Feature","geometry":{"type":"Point","coordinates":[-77.030586030066345,38.928008287475386]},"properties":{"NAME":"Columbia Heights"}},{"type":"Feature","geometry":{"type":"Point","coordinates":[-77.007767405161133,38.925775582524778]},"properties":{"NAME":"Stronghold"}},{"type":"Feature","geometry":{"type":"Point","coordinates":[-77.07007461872665,38.925398758867928]},"properties":{"NAME":"Mass. Ave. Heights"}},{"type":"Feature","geometry":{"type":"Point","coordinates":[-77.042693542195821,38.925248829168183]},"properties":{"NAME":"Lanier Heights"}},{"type":"Feature","geometry":{"type":"Point","coordinates":[-77.000739289319341,38.925198873667597]},"properties":{"NAME":"Edgewood"}},{"type":"Feature","geometry":{"type":"Point","coordinates":[-76.974689454633321,38.924016964528867]},"properties":{"NAME":"Langdon"}},{"type":"Feature","geometry":{"type":"Point","coordinates":[-76.965043117107186,38.92398546155593]},"properties":{"NAME":"South Central"}},{"type":"Feature","geometry":{"type":"Point","coordinates":[-77.060753468908018,38.922850008863598]},"properties":{"NAME":"Woodland-Normanstone"}},{"type":"Feature","geometry":{"type":"Point","coordinates":[-77.019610269651238,38.92235481669654]},"properties":{"NAME":"Howard University"}},{"type":"Feature","geometry":{"type":"Point","coordinates":[-77.075737519712064,38.921530825833557]},"properties":{"NAME":"Glover Park"}},{"type":"Feature","geometry":{"type":"Point","coordinates":[-77.092766746869273,38.920486499601651]},"properties":{"NAME":"Foxhall Crescents"}},{"type":"Feature","geometry":{"type":"Point","coordinates":[-76.963845706133185,38.919756832711371]},"properties":{"NAME":"Gateway"}},{"type":"Feature","geometry":{"type":"Point","coordinates":[-76.987035218133158,38.918977278754319]},"properties":{"NAME":"Brentwood"}},{"type":"Feature","geometry":{"type":"Point","coordinates":[-77.011159332836655,38.918226431219026]},"properties":{"NAME":"Bloomingdale"}},{"type":"Feature","geometry":{"type":"Point","coordinates":[-77.027550107597946,38.917168299956309]},"properties":{"NAME":"Cardozo/Shaw"}},{"type":"Feature","geometry":{"type":"Point","coordinates":[-77.051194711975825,38.915660435927045]},"properties":{"NAME":"Kalorama Heights"}},{"type":"Feature","geometry":{"type":"Point","coordinates":[-77.000425424817251,38.915201839163437]},"properties":{"NAME":"Eckington"}},{"type":"Feature","geometry":{"type":"Point","coordinates":[-77.07456576365054,38.915002996990751]},"properties":{"NAME":"Burleith/Hillandale"}},{"type":"Feature","geometry":{"type":"Point","coordinates":[-76.972489748900756,38.914859753445512]},"properties":{"NAME":"Arboretum"}},{"type":"Feature","geometry":{"type":"Point","coordinates":[-77.040983698253342,38.912128105238914]},"properties":{"NAME":"Dupont Circle"}},{"type":"Feature","geometry":{"type":"Point","coordinates":[-76.938585986684458,38.910678765746589]},"properties":{"NAME":"Kenilworth"}},{"type":"Feature","geometry":{"type":"Point","coordinates":[-76.991626891135056,38.910389474332263]},"properties":{"NAME":"Ivy City"}},{"type":"Feature","geometry":{"type":"Point","coordinates":[-77.025340375017521,38.909816311218464]},"properties":{"NAME":"Logan Circle/Shaw"}},{"type":"Feature","geometry":{"type":"Point","coordinates":[-77.090677417401864,38.909637125464705]},"properties":{"NAME":"Georgetown Reservoir"}},{"type":"Feature","geometry":{"type":"Point","coordinates":[-77.064795598599488,38.909555803440725]},"properties":{"NAME":"Georgetown"}},{"type":"Feature","geometry":{"type":"Point","coordinates":[-76.982736994058243,38.908462460986016]},"properties":{"NAME":"Trinidad"}},{"type":"Feature","geometry":{"type":"Point","coordinates":[-77.051882463770042,38.905550337821495]},"properties":{"NAME":"West End"}},{"type":"Feature","geometry":{"type":"Point","coordinates":[-76.943070392609812,38.905329401739102]},"properties":{"NAME":"Eastland Gardens"}},{"type":"Feature","geometry":{"type":"Point","coordinates":[-76.932800893105252,38.904107269068035]},"properties":{"NAME":"Deanwood"}},{"type":"Feature","geometry":{"type":"Point","coordinates":[-77.04113385532861,38.90295185095102]},"properties":{"NAME":"Connecticut Avenue/K Street"}},{"type":"Feature","geometry":{"type":"Point","coordinates":[-77.011275345075418,38.902532165215668]},"properties":{"NAME":"North Capitol Street"}},{"type":"Feature","geometry":{"type":"Point","coordinates":[-76.977849791150931,38.902465254483886]},"properties":{"NAME":"Carver"}},{"type":"Feature","geometry":{"type":"Point","coordinates":[-77.016879257197346,38.902416984649463]},"properties":{"NAME":"Mount Vernon Triangle"}},{"type":"Feature","geometry":{"type":"Point","coordinates":[-76.972367090815411,38.90133625806893]},"properties":{"NAME":"Langston"}},{"type":"Feature","geometry":{"type":"Point","coordinates":[-76.95129459520389,38.901115641345179]},"properties":{"NAME":"Mayfair"}},{"type":"Feature","geometry":{"type":"Point","coordinates":[-77.029174516412013,38.900526147866735]},"properties":{"NAME":"Downtown"}},{"type":"Feature","geometry":{"type":"Point","coordinates":[-76.921802466999338,38.900242991613162]},"properties":{"NAME":"Burrville"}},{"type":"Feature","geometry":{"type":"Point","coordinates":[-77.020135264563535,38.899151199808344]},"properties":{"NAME":"Chinatown"}},{"type":"Feature","geometry":{"type":"Point","coordinates":[-77.052436260321429,38.899021715456776]},"properties":{"NAME":"Foggy Bottom"}},{"type":"Feature","geometry":{"type":"Point","coordinates":[-76.942276757720663,38.897034546689198]},"properties":{"NAME":"Central NE"}},{"type":"Feature","geometry":{"type":"Point","coordinates":[-76.931096553636124,38.89580516901686]},"properties":{"NAME":"Lincoln Heights"}},{"type":"Feature","geometry":{"type":"Point","coordinates":[-76.917389427030969,38.895450818022333]},"properties":{"NAME":"NE Boundary"}},{"type":"Feature","geometry":{"type":"Point","coordinates":[-77.014233689023229,38.895428163178181]},"properties":{"NAME":"Downtown East"}},{"type":"Feature","geometry":{"type":"Point","coordinates":[-76.99424171027259,38.89489781844982]},"properties":{"NAME":"Stanton Park"}},{"type":"Feature","geometry":{"type":"Point","coordinates":[-76.978436570120238,38.894886565677126]},"properties":{"NAME":"Kingman Park"}},{"type":"Feature","geometry":{"type":"Point","coordinates":[-76.957680651539221,38.893704550620974]},"properties":{"NAME":"River Terrace"}},{"type":"Feature","geometry":{"type":"Point","coordinates":[-76.920638440989151,38.892706498517676]},"properties":{"NAME":"Grant Park"}},{"type":"Feature","geometry":{"type":"Point","coordinates":[-76.927085905610895,38.889978451094599]},"properties":{"NAME":"Capitol View"}},{"type":"Feature","geometry":{"type":"Point","coordinates":[-76.989709956957128,38.887210697169557]},"properties":{"NAME":"Lincoln Park"}},{"type":"Feature","geometry":{"type":"Point","coordinates":[-76.950684587457388,38.886016705530729]},"properties":{"NAME":"Fort Dupont"}},{"type":"Feature","geometry":{"type":"Point","coordinates":[-76.960180928309157,38.884787504417076]},"properties":{"NAME":"Greenway"}},{"type":"Feature","geometry":{"type":"Point","coordinates":[-77.03733447242341,38.88446305789946]},"properties":{"NAME":"Monumental Core"}},{"type":"Feature","geometry":{"type":"Point","coordinates":[-76.929121720880048,38.88437194938205]},"properties":{"NAME":"Marshall Heights"}},{"type":"Feature","geometry":{"type":"Point","coordinates":[-76.998477487011641,38.883620759015656]},"properties":{"NAME":"Capitol Hill"}},{"type":"Feature","geometry":{"type":"Point","coordinates":[-76.979950663802356,38.883330005333029]},"properties":{"NAME":"Hill East"}},{"type":"Feature","geometry":{"type":"Point","coordinates":[-76.938202709375858,38.881161508181911]},"properties":{"NAME":"Benning Ridge"}},{"type":"Feature","geometry":{"type":"Point","coordinates":[-77.016902950563249,38.877908360756329]},"properties":{"NAME":"Southwest/Waterfront"}},{"type":"Feature","geometry":{"type":"Point","coordinates":[-76.96084720785349,38.875587908773106]},"properties":{"NAME":"Twining"}},{"type":"Feature","geometry":{"type":"Point","coordinates":[-76.998461644816118,38.874268415683524]},"properties":{"NAME":"Navy Yard"}},{"type":"Feature","geometry":{"type":"Point","coordinates":[-76.96281842788008,38.872630409993079]},"properties":{"NAME":"Dupont Park"}},{"type":"Feature","geometry":{"type":"Point","coordinates":[-76.965803638625019,38.869335650759254]},"properties":{"NAME":"Randle Highlands"}},{"type":"Feature","geometry":{"type":"Point","coordinates":[-76.977451779697248,38.869158492686097]},"properties":{"NAME":"Fairlawn"}},{"type":"Feature","geometry":{"type":"Point","coordinates":[-76.944669840503337,38.868901190739123]},"properties":{"NAME":"Fort Davis Park"}},{"type":"Feature","geometry":{"type":"Point","coordinates":[-77.01142454078574,38.868300122383502]},"properties":{"NAME":"Buzzard Point"}},{"type":"Feature","geometry":{"type":"Point","coordinates":[-76.951630061476436,38.863452676922222]},"properties":{"NAME":"Fairfax Village"}},{"type":"Feature","geometry":{"type":"Point","coordinates":[-76.984677632703068,38.863185707879865]},"properties":{"NAME":"Historic Anacostia"}},{"type":"Feature","geometry":{"type":"Point","coordinates":[-76.960688246194124,38.861794492854436]},"properties":{"NAME":"Hillcrest"}},{"type":"Feature","geometry":{"type":"Point","coordinates":[-76.971702985906802,38.860266961641727]},"properties":{"NAME":"Skyland"}},{"type":"Feature","geometry":{"type":"Point","coordinates":[-76.990561027224516,38.858423362974818]},"properties":{"NAME":"Hillsdale"}},{"type":"Feature","geometry":{"type":"Point","coordinates":[-76.963046030666149,38.856724429709857]},"properties":{"NAME":"Naylor Gardens"}},{"type":"Feature","geometry":{"type":"Point","coordinates":[-76.97392561419916,38.856554242204076]},"properties":{"NAME":"Woodland"}},{"type":"Feature","geometry":{"type":"Point","coordinates":[-76.980347708398938,38.855657728725419]},"properties":{"NAME":"Fort Stanton"}},{"type":"Feature","geometry":{"type":"Point","coordinates":[-76.972213260819515,38.854085123030863]},"properties":{"NAME":"Garfield Heights"}},{"type":"Feature","geometry":{"type":"Point","coordinates":[-76.967660036573236,38.853688057049375]},"properties":{"NAME":"Knox Hill/Buena Vista"}},{"type":"Feature","geometry":{"type":"Point","coordinates":[-76.979644569713741,38.84757145651276]},"properties":{"NAME":"Douglass"}},{"type":"Feature","geometry":{"type":"Point","coordinates":[-76.972902342322357,38.846860130972928]},"properties":{"NAME":"Shipley"}},{"type":"Feature","geometry":{"type":"Point","coordinates":[-76.997949927487639,38.84107730363948]},"properties":{"NAME":"Congress Heights"}},{"type":"Feature","geometry":{"type":"Point","coordinates":[-76.995636210322672,38.830237416147064]},"properties":{"NAME":"Washington Highlands"}},{"type":"Feature","geometry":{"type":"Point","coordinates":[-77.009270760297127,38.826952443457202]},"properties":{"NAME":"Bellevue"}},{"type":"Feature","geometry":{"type":"Point","coordinates":[-77.032125713860438,38.982980056439665]},"properties":{"NAME":"Shepherd Park"}},{"type":"Feature","geometry":{"type":"Point","coordinates":[-77.006445047538918,38.96506972578365]},"properties":{"NAME":"Lamond Riggs"}},{"type":"Feature","geometry":{"type":"Point","coordinates":[-77.024871392689661,38.955747647436958]},"properties":{"NAME":"Brightwood Park"}},{"type":"Feature","geometry":{"type":"Point","coordinates":[-76.983771955806503,38.946934138878873]},"properties":{"NAME":"Michigan Park"}},{"type":"Feature","geometry":{"type":"Point","coordinates":[-77.024017325283225,38.943039128223539]},"properties":{"NAME":"Petworth"}},{"type":"Feature","geometry":{"type":"Point","coordinates":[-77.064401738824571,38.936097870458511]},"properties":{"NAME":"Cleveland Park"}},{"type":"Feature","geometry":{"type":"Point","coordinates":[-76.984413591207428,38.931404393866906]},"properties":{"NAME":"Brookland"}},{"type":"Feature","geometry":{"type":"Point","coordinates":[-77.057482951171295,38.927265326216933]},"properties":{"NAME":"Woodley Park"}},{"type":"Feature","geometry":{"type":"Point","coordinates":[-76.954748776961608,38.923609804252386]},"properties":{"NAME":"Fort Lincoln"}},{"type":"Feature","geometry":{"type":"Point","coordinates":[-77.042391105440487,38.92047220358144]},"properties":{"NAME":"Adams Morgan"}},{"type":"Feature","geometry":{"type":"Point","coordinates":[-77.017604550696277,38.916831598513689]},"properties":{"NAME":"Le Droit Park"}},{"type":"Feature","geometry":{"type":"Point","coordinates":[-77.084407126113661,38.913247134618281]},"properties":{"NAME":"Foxhall Village"}},{"type":"Feature","geometry":{"type":"Point","coordinates":[-77.012394156425742,38.90966730503078]},"properties":{"NAME":"Truxton Circle"}},{"type":"Feature","geometry":{"type":"Point","coordinates":[-77.023313482315501,38.904339810160138]},"properties":{"NAME":"Mount Vernon Square"}},{"type":"Feature","geometry":{"type":"Point","coordinates":[-76.999733886835244,38.902374792735166]},"properties":{"NAME":"Near Northeast"}},{"type":"Feature","geometry":{"type":"Point","coordinates":[-77.047928443478924,38.899627734701845]},"properties":{"NAME":"George Washington University"}},{"type":"Feature","geometry":{"type":"Point","coordinates":[-77.022180653550677,38.895370441944301]},"properties":{"NAME":"Penn Quarter"}},{"type":"Feature","geometry":{"type":"Point","coordinates":[-76.948883628125586,38.89188489944231]},"properties":{"NAME":"Benning"}},{"type":"Feature","geometry":{"type":"Point","coordinates":[-77.020316874836084,38.885016571417104]},"properties":{"NAME":"Southwest Employment Area"}},{"type":"Feature","geometry":{"type":"Point","coordinates":[-77.000627105517424,38.878384469111658]},"properties":{"NAME":"Near Southeast"}},{"type":"Feature","geometry":{"type":"Point","coordinates":[-76.953423864860198,38.869560183004488]},"properties":{"NAME":"Penn Branch"}},{"type":"Feature","geometry":{"type":"Point","coordinates":[-77.016438102388037,38.866943325860248]},"properties":{"NAME":"Fort McNair"}},{"type":"Feature","geometry":{"type":"Point","coordinates":[-76.997280507062356,38.859255262365537]},"properties":{"NAME":"Barry Farm"}}]}